CCSDS_OEM_VERS = 2.0
CREATION_DATE  = 2023-03-27T21:42:20.322
ORIGINATOR     = NASA/JSC/FOD/TOPO

META_START
OBJECT_NAME          = ISS
OBJECT_ID            = 1998-067-A
CENTER_NAME          = Earth
REF_FRAME            = EME2000
TIME_SYSTEM          = UTC
START_TIME           = 2023-03-27T12:00:00.000
USEABLE_START_TIME   = 2023-03-27T12:00:00.000
USEABLE_STOP_TIME    = 2023-04-11T12:00:00.000
STOP_TIME            = 2023-04-11T12:00:00.000
META_STOP

COMMENT Source: This file was produced by the TOPO office within FOD at JSC.
COMMENT Units are in kg and m^2
COMMENT MASS=473832.00
COMMENT DRAG_AREA=1964.62
COMMENT DRAG_COEFF=2.00
COMMENT SOLAR_RAD_AREA=0.00
COMMENT SOLAR_RAD_COEFF=0.00
COMMENT Orbits start at the ascending node epoch
COMMENT ISS first asc. node: EPOCH = 2023-03-27T13:30:55.799 $ ORBIT = 2912 $ LAN(DEG) = -14.50354
COMMENT ISS last asc. node : EPOCH = 2023-04-11T11:04:02.212 $ ORBIT = 3143 $ LAN(DEG) = -66.21750
COMMENT Begin sequence of events
COMMENT TRAJECTORY EVENT SUMMARY:
COMMENT 
COMMENT |       EVENT        |       TIG        | ORB |   DV    |   HA    |   HP    |
COMMENT |                    |       GMT        |     |   M/S   |   KM    |   KM    |
COMMENT |                    |                  |     |  (F/S)  |  (NM)   |  (NM)   |
COMMENT =============================================================================
COMMENT  68S Undocking         087:09:57:30.000             0.0     426.1     408.6
COMMENT                                                    (0.0)   (230.1)   (220.6)
COMMENT 
COMMENT  GMT 089 Cygnus Reb    089:16:48:00.000             0.8     425.6     408.7
COMMENT                                                    (2.6)   (229.8)   (220.7)
COMMENT 
COMMENT =============================================================================
COMMENT End sequence of events
2023-04-02T05:50:00.000 6416.103360318500 83.902383335100 2245.272849178550 -1.97973377152823 5.01289713624279 5.44146972221912
2023-04-02T05:54:00.000 5713.575474349260 1269.341336770530 3453.499134286750 -3.83894237067111 4.80548903807973 4.56547724378981
2023-04-02T05:58:00.000 4595.802821174140 2362.533990252740 4410.023520464540 -5.41896498233699 4.24889743187422 3.35682697839923
2023-04-02T06:02:00.000 3144.060112821500 3284.058857957120 5045.168939107680 -6.60509398240207 3.38363321853755 1.90367393324317
2023-04-02T06:06:00.000 1463.844041590890 3966.949061675670 5312.649088740850 -7.31131041918346 2.27235413247331 0.31163104625027
2023-04-02T06:10:00.000 -322.762754351666 4361.504201668620 5192.882234359570 -7.48623182211835 0.99542427267448 -1.30372032384142
2023-04-02T06:14:00.000 -2085.882559724190 4438.875295020350 4694.403276130360 -7.11665585186909 -0.35478487122086 -2.82503293985255
2023-04-02T06:18:00.000 -3697.176687403260 4193.187996313770 3853.305455726050 -6.22859737087564 -1.68028014475744 -4.14134265232134
2023-04-02T06:22:00.000 -5039.154942909270 3642.077150039010 2730.743777973000 -4.88599725203144 -2.88435159770635 -5.15606553274442
2023-04-02T06:26:00.000 -6013.839743700790 2825.517749579860 1408.586797793280 -3.18660687454933 -3.87870447947825 -5.79431436093355
2023-04-02T06:30:00.000 -6550.106221184200 1802.978319342660 -16.554049296776 -1.25505375343070 -4.59027269139540 -6.00896360716464
2023-04-02T06:34:00.000 -6609.040174973040 649.041088767661 -1440.498755702980 0.76660506843639 -4.96700776439160 -5.78450797005293
2023-04-02T06:38:00.000 -6186.812969720060 -552.166856302203 -2759.292756408260 2.72997335769940 -4.98191972282695 -5.13829008486032
2023-04-02T06:42:00.000 -5314.814520861410 -1713.259244131090 -3876.947098027980 4.49186192457269 -4.63495575962948 -4.11884071325565
2023-04-02T06:46:00.000 -4057.081596131270 -2750.041713417180 -4712.458111525750 5.92505758113839 -3.95249608617597 -2.80160984184017
2023-04-02T06:50:00.000 -2505.359690075790 -3587.586418323250 -5205.560584100250 6.92714993860498 -2.98481958519373 -1.28285251729604
2023-04-02T06:54:00.000 -772.310260789720 -4165.514335225640 -5320.884464785340 7.42718311105884 -1.80212889214547 0.32749826486465
2023-04-02T06:58:00.000 1016.605484147460 -4442.186028720620 -5050.302991187930 7.38995084195655 -0.48946192889808 1.91363668848224
2023-04-02T07:02:00.000 2731.992208220110 -4397.578301192580 -4413.426563295220 6.81807097915059 0.85908138140235 3.36150023639416
2023-04-02T07:06:00.000 4249.651138167410 -4034.719601818850 -3456.254112107960 5.75202729939999 2.14659146453902 4.56653386078469
2023-04-02T07:10:00.000 5459.427579542750 -3379.574469088070 -2248.002150277560 4.26780653560904 3.27994929264652 5.44095641711808
2023-04-02T07:14:00.000 6273.228665675700 -2479.331341209120 -876.270656834236 2.47224946802692 4.17653105706699 5.92039295732316
2023-04-02T07:18:00.000 6631.580088606920 -1399.103904264310 559.239416513899 0.49556958748946 4.77055055637370 5.96905745482379
2023-04-02T07:22:00.000 6508.130132055160 -217.244276984401 1953.995290069720 -1.51815709504919 5.01821378588109 5.58278116339577
2023-04-02T07:26:00.000 5911.688836875950 980.392734422698 3206.337191250300 -3.42186563264869 4.90120467232818 4.78954633691748
2023-04-02T07:30:00.000 4885.591991600850 2106.771508940480 4224.987724144520 -5.07673117285195 4.42803701248498 3.64729275558794
2023-04-02T07:34:00.000 3504.463679304570 3080.054184837210 4935.739036296850 -6.36245596910458 3.63319346625153 2.23942933142287
2023-04-02T07:38:00.000 1868.684117290900 3829.531919153150 5286.822569796620 -7.18591623810946 2.57432923425735 0.66831970407376
2023-04-02T07:42:00.000 97.092038993869 4300.696211443820 5252.581302629280 -7.48728117397866 1.32797536640994 -0.95205036807797
2023-04-02T07:46:00.000 -1681.549003493780 4459.149848493170 4835.327840370100 -7.24419103957221 -0.01575793057245 -2.50395760942791
2023-04-02T07:50:00.000 -3337.814479795450 4293.136920394410 4065.240227208760 -6.47357088132899 -1.35942220765274 -3.87431061420005
2023-04-02T07:54:00.000 -4750.989709520950 3814.480744152500 2998.266952216630 -5.23071216105502 -2.60513997641721 -4.96273810751690
2023-04-02T07:58:00.000 -5817.918976144970 3057.841679021830 1712.171194214030 -3.60586230116289 -3.66166132726521 -5.68899373813036
2023-04-02T08:02:00.000 -6460.712847760340 2078.285475250600 300.900571513436 -1.71804135778769 -4.45132323704373 -5.99940540915603
2023-04-02T08:06:00.000 -6632.622154539780 947.251018221950 -1132.372144122630 0.29393286290391 -4.91624904821749 -5.87128649168315
2023-04-02T08:10:00.000 -6321.527237778620 -252.778151022346 -2482.963161166410 2.28222103724398 -5.02287704585802 -5.31481346995853
2023-04-02T08:14:00.000 -5550.705897412520 -1434.447596333740 -3652.493713486450 4.10159267372028 -4.76437645841752 -4.37192333472974
2023-04-02T08:18:00.000 -4376.873747518750 -2511.998992251330 -4556.111734042040 5.62035069501880 -4.16070935701585 -3.11259773438102
2023-04-02T08:22:00.000 -2885.769828838550 -3407.496613435880 -5128.566300181160 6.72971758003456 -3.25660486026847 -1.62910469543592
2023-04-02T08:26:00.000 -1185.750942725390 -4056.352450301880 -5328.731255946670 7.35098264737771 -2.11783136028899 -0.02898608822600
2023-04-02T08:30:00.000 600.046512880221 -4411.812453752400 -5142.370783526050 7.44032029922161 -0.82637591311461 1.57250146955115
2023-04-02T08:34:00.000 2342.446520976190 -4448.196001528460 -4583.049179789940 6.99147446164816 0.52514357260488 3.06026677550253
2023-04-02T08:38:00.000 3915.336254194770 -4162.706911283880 -3691.165182857600 6.03613089607094 1.83968835605539 4.32701210454700
2023-04-02T08:42:00.000 5204.624471662070 -3575.720495002790 -2531.189796045310 4.64230072483817 3.02234196648253 5.28066304558230
2023-04-02T08:46:00.000 6116.499471952070 -2729.458699636220 -1187.172143059000 2.91005862660669 3.98706320343598 5.85117817505100
2023-04-02T08:50:00.000 6584.373044561650 -1685.080344342530 243.244096124039 0.96487270251352 4.66311988747038 5.99610750471746
2023-04-02T08:54:00.000 6573.920956373500 -518.301272879746 1655.927505345020 -1.05158395335446 5.00075285219599 5.70421997483892
2023-04-02T08:58:00.000 6085.704864124710 686.138498808260 2947.920350450590 -2.99208110355101 4.97500378032562 4.99650038916282
2023-04-02T09:02:00.000 5155.172117980100 1840.702652931940 4025.046884433460 -4.71500844003409 4.58767545258366 3.92465795710505
2023-04-02T09:06:00.000 3850.002794578310 2861.494090718800 4808.833462351470 -6.09502591321514 3.86705039784884 2.56697622872476
2023-04-02T09:10:00.000 2265.079838620780 3674.355869190190 5242.199821937190 -7.03211833889105 2.86546553747157 1.02229833343799
2023-04-02T09:14:00.000 515.553533130019 4220.197900634390 5293.531136887680 -7.45835076814537 1.65538642834071 -0.59726722386313
2023-04-02T09:18:00.000 -1271.452489845320 4459.230592618030 4958.926887347020 -7.34243406559951 0.32422918969826 -2.17422436050188
2023-04-02T09:22:00.000 -2965.946912689270 4373.849665110190 4262.528652863240 -6.69198123332384 -1.03157935784359 -3.59373327122366
2023-04-02T09:26:00.000 -4444.468181095000 3970.008682768980 3254.892963061080 -5.55354392715982 -2.31335082634586 -4.75189149554164
2023-04-02T09:30:00.000 -5599.127294804250 3276.896511529190 2009.415555327870 -4.00962107584824 -3.42733132749224 -5.56346253713239
2023-04-02T09:34:00.000 -6345.618084276110 2344.908937608050 617.038612585194 -2.17309157792857 -4.29168978421193 -5.96845802604122
2023-04-02T09:38:00.000 -6629.570060356830 1241.994519736410 -820.450126901205 -0.17893881942652 -4.84297262891269 -5.93712640998690
2023-04-02T09:42:00.000 -6430.627365934310 48.602373326968 -2198.022377061010 1.82622797835725 -5.04114376020107 -5.47238688525535
2023-04-02T09:46:00.000 -5763.868370662200 -1148.343533148280 -3415.259660730060 3.69567455775395 -4.87258870327620 -4.60942357132773
2023-04-02T09:50:00.000 -4678.467732838280 -2261.908329015270 -4383.763799221500 5.29377483314182 -4.35074175992447 -3.41248295854593
